[{"OBJECT_NAME":"STARLINK-6073","OBJECT_ID":"2023-078AS","EPOCH":"2026-03-09T22:17:41.084736","MEAN_MOTION":14.99848742,"ECCENTRICITY":0.00116938,"INCLINATION":70.0028,"RA_OF_ASC_NODE":323.68,"ARG_OF_PERICENTER":295.6335,"MEAN_ANOMALY":64.3616,"EPHEMERIS_TYPE":0,"CLASSIFICATION_TYPE":"U","NORAD_CAT_ID":56807,"ELEMENT_SET_NO":999,"REV_AT_EPOCH":15321,"BSTAR":0.083955931,"MEAN_MOTION_DOT":0.01119436,"MEAN_MOTION_DDOT":0},{"OBJECT_NAME":"OBJECT C","OBJECT_ID":"2026-023C","EPOCH":"2026-03-09T17:14:42.726048","MEAN_MOTION":15.23105823,"ECCENTRICITY":0.00205519,"INCLINATION":96.6388,"RA_OF_ASC_NODE":141.6892,"ARG_OF_PERICENTER":122.5463,"MEAN_ANOMALY":237.7764,"EPHEMERIS_TYPE":0,"CLASSIFICATION_TYPE":"U","NORAD_CAT_ID":67676,"ELEMENT_SET_NO":999,"REV_AT_EPOCH":502,"BSTAR":0.00045389382,"MEAN_MOTION_DOT":0.00010715,"MEAN_MOTION_DDOT":0}]
